CCSDS_OMM_VERS = 2.0
CREATION_DATE  = 
ORIGINATOR     = 

OBJECT_NAME    = SILVERSAT
OBJECT_ID      = 1998-067XV
CENTER_NAME    = EARTH
REF_FRAME      = TEME
TIME_SYSTEM    = UTC
MEAN_ELEMENT_THEORY = SGP/SGP4

EPOCH          = 2026-02-12T18:52:43.535136
MEAN_MOTION    = 15.64148018
ECCENTRICITY   = .00026217
INCLINATION    = 51.6260
RA_OF_ASC_NODE = 191.6138
ARG_OF_PERICENTER = 286.8301
MEAN_ANOMALY   = 73.2406

EPHEMERIS_TYPE = 0
CLASSIFICATION_TYPE = U
NORAD_CAT_ID   = 66909
ELEMENT_SET_NO = 999
REV_AT_EPOCH   = 1128
BSTAR          = .13214761E-2
MEAN_MOTION_DOT = .12951E-2
MEAN_MOTION_DDOT = 0

CCSDS_OMM_VERS = 2.0
CREATION_DATE  = 
ORIGINATOR     = 

OBJECT_NAME    = ISS OBJECT XW
OBJECT_ID      = 1998-067XW
CENTER_NAME    = EARTH
REF_FRAME      = TEME
TIME_SYSTEM    = UTC
MEAN_ELEMENT_THEORY = SGP/SGP4

EPOCH          = 2026-02-12T19:20:42.626688
MEAN_MOTION    = 15.62492126
ECCENTRICITY   = .00018154
INCLINATION    = 51.6251
RA_OF_ASC_NODE = 191.7381
ARG_OF_PERICENTER = 319.3740
MEAN_ANOMALY   = 40.7118

EPHEMERIS_TYPE = 0
CLASSIFICATION_TYPE = U
NORAD_CAT_ID   = 66910
ELEMENT_SET_NO = 999
REV_AT_EPOCH   = 1128
BSTAR          = .11175686E-2
MEAN_MOTION_DOT = .102181E-2
MEAN_MOTION_DDOT = 0

CCSDS_OMM_VERS = 2.0
CREATION_DATE  = 
ORIGINATOR     = 

OBJECT_NAME    = ISS OBJECT XX
OBJECT_ID      = 1998-067XX
CENTER_NAME    = EARTH
REF_FRAME      = TEME
TIME_SYSTEM    = UTC
MEAN_ELEMENT_THEORY = SGP/SGP4

EPOCH          = 2026-02-12T15:01:00.112800
MEAN_MOTION    = 15.65511224
ECCENTRICITY   = .0003356
INCLINATION    = 51.6233
RA_OF_ASC_NODE = 192.0300
ARG_OF_PERICENTER = 305.0177
MEAN_ANOMALY   = 55.0503

EPHEMERIS_TYPE = 0
CLASSIFICATION_TYPE = U
NORAD_CAT_ID   = 66911
ELEMENT_SET_NO = 999
REV_AT_EPOCH   = 1125
BSTAR          = .14994E-2
MEAN_MOTION_DOT = .155735E-2
MEAN_MOTION_DDOT = 0

CCSDS_OMM_VERS = 2.0
CREATION_DATE  = 
ORIGINATOR     = 

OBJECT_NAME    = ISS OBJECT XY
OBJECT_ID      = 1998-067XY
CENTER_NAME    = EARTH
REF_FRAME      = TEME
TIME_SYSTEM    = UTC
MEAN_ELEMENT_THEORY = SGP/SGP4

EPOCH          = 2026-02-12T19:29:57.540192
MEAN_MOTION    = 15.59404778
ECCENTRICITY   = .0000339
INCLINATION    = 51.6277
RA_OF_ASC_NODE = 192.5393
ARG_OF_PERICENTER = 282.0268
MEAN_ANOMALY   = 78.0687

EPHEMERIS_TYPE = 0
CLASSIFICATION_TYPE = U
NORAD_CAT_ID   = 66912
ELEMENT_SET_NO = 999
REV_AT_EPOCH   = 1126
BSTAR          = .9558543E-3
MEAN_MOTION_DOT = .77252E-3
MEAN_MOTION_DDOT = 0

CCSDS_OMM_VERS = 2.0
CREATION_DATE  = 
ORIGINATOR     = 

OBJECT_NAME    = ISS OBJECT XZ
OBJECT_ID      = 1998-067XZ
CENTER_NAME    = EARTH
REF_FRAME      = TEME
TIME_SYSTEM    = UTC
MEAN_ELEMENT_THEORY = SGP/SGP4

EPOCH          = 2026-02-12T23:34:35.161824
MEAN_MOTION    = 15.49822128
ECCENTRICITY   = .0010729
INCLINATION    = 51.6301
RA_OF_ASC_NODE = 194.4215
ARG_OF_PERICENTER = 106.2129
MEAN_ANOMALY   = 254.0041

EPHEMERIS_TYPE = 0
CLASSIFICATION_TYPE = U
NORAD_CAT_ID   = 67683
ELEMENT_SET_NO = 999
REV_AT_EPOCH   = 95
BSTAR          = .6497E-3
MEAN_MOTION_DOT = .36636E-3
MEAN_MOTION_DDOT = 0

CCSDS_OMM_VERS = 2.0
CREATION_DATE  = 
ORIGINATOR     = 

OBJECT_NAME    = GXIBA-1
OBJECT_ID      = 1998-067YA
CENTER_NAME    = EARTH
REF_FRAME      = TEME
TIME_SYSTEM    = UTC
MEAN_ELEMENT_THEORY = SGP/SGP4

EPOCH          = 2026-02-12T20:25:10.880832
MEAN_MOTION    = 15.50533963
ECCENTRICITY   = .0012584
INCLINATION    = 51.6297
RA_OF_ASC_NODE = 195.0439
ARG_OF_PERICENTER = 100.5958
MEAN_ANOMALY   = 259.6449

EPHEMERIS_TYPE = 0
CLASSIFICATION_TYPE = U
NORAD_CAT_ID   = 67684
ELEMENT_SET_NO = 999
REV_AT_EPOCH   = 93
BSTAR          = .10501E-2
MEAN_MOTION_DOT = .61267E-3
MEAN_MOTION_DDOT = 0

CCSDS_OMM_VERS = 2.0
CREATION_DATE  = 
ORIGINATOR     = 

OBJECT_NAME    = CORAL
OBJECT_ID      = 1998-067YB
CENTER_NAME    = EARTH
REF_FRAME      = TEME
TIME_SYSTEM    = UTC
MEAN_ELEMENT_THEORY = SGP/SGP4

EPOCH          = 2026-02-12T23:33:47.651328
MEAN_MOTION    = 15.49955945
ECCENTRICITY   = .0012703
INCLINATION    = 51.6299
RA_OF_ASC_NODE = 194.4177
ARG_OF_PERICENTER = 102.0547
MEAN_ANOMALY   = 258.1866

EPHEMERIS_TYPE = 0
CLASSIFICATION_TYPE = U
NORAD_CAT_ID   = 67685
ELEMENT_SET_NO = 999
REV_AT_EPOCH   = 95
BSTAR          = .69017E-3
MEAN_MOTION_DOT = .39181E-3
MEAN_MOTION_DDOT = 0

CCSDS_OMM_VERS = 2.0
CREATION_DATE  = 
ORIGINATOR     = 

OBJECT_NAME    = ISS OBJECT YC
OBJECT_ID      = 1998-067YC
CENTER_NAME    = EARTH
REF_FRAME      = TEME
TIME_SYSTEM    = UTC
MEAN_ELEMENT_THEORY = SGP/SGP4

EPOCH          = 2026-02-12T18:54:39.291264
MEAN_MOTION    = 15.50080405
ECCENTRICITY   = .00077931
INCLINATION    = 51.6303
RA_OF_ASC_NODE = 195.3741
ARG_OF_PERICENTER = 76.6609
MEAN_ANOMALY   = 283.5248

EPHEMERIS_TYPE = 0
CLASSIFICATION_TYPE = U
NORAD_CAT_ID   = 67686
ELEMENT_SET_NO = 999
REV_AT_EPOCH   = 92
BSTAR          = .79685314E-3
MEAN_MOTION_DOT = .45458E-3
MEAN_MOTION_DDOT = 0

CCSDS_OMM_VERS = 2.0
CREATION_DATE  = 
ORIGINATOR     = 

OBJECT_NAME    = LEOPARD
OBJECT_ID      = 1998-067YD
CENTER_NAME    = EARTH
REF_FRAME      = TEME
TIME_SYSTEM    = UTC
MEAN_ELEMENT_THEORY = SGP/SGP4

EPOCH          = 2026-02-12T20:28:25.349952
MEAN_MOTION    = 15.49891622
ECCENTRICITY   = .0007896
INCLINATION    = 51.6306
RA_OF_ASC_NODE = 195.0588
ARG_OF_PERICENTER = 78.6464
MEAN_ANOMALY   = 281.5412

EPHEMERIS_TYPE = 0
CLASSIFICATION_TYPE = U
NORAD_CAT_ID   = 67687
ELEMENT_SET_NO = 999
REV_AT_EPOCH   = 85
BSTAR          = .67286E-3
MEAN_MOTION_DOT = .38021E-3
MEAN_MOTION_DDOT = 0

CCSDS_OMM_VERS = 2.0
CREATION_DATE  = 
ORIGINATOR     = 

OBJECT_NAME    = ISS OBJECT YE
OBJECT_ID      = 1998-067YE
CENTER_NAME    = EARTH
REF_FRAME      = TEME
TIME_SYSTEM    = UTC
MEAN_ELEMENT_THEORY = SGP/SGP4

EPOCH          = 2026-02-12T18:54:50.801472
MEAN_MOTION    = 15.50022474
ECCENTRICITY   = .00077817
INCLINATION    = 51.6307
RA_OF_ASC_NODE = 195.3748
ARG_OF_PERICENTER = 76.9093
MEAN_ANOMALY   = 283.2764

EPHEMERIS_TYPE = 0
CLASSIFICATION_TYPE = U
NORAD_CAT_ID   = 67688
ELEMENT_SET_NO = 999
REV_AT_EPOCH   = 84
BSTAR          = .79904328E-3
MEAN_MOTION_DOT = .4549E-3
MEAN_MOTION_DDOT = 0

